#aV2019 10 10  0  0  0.00000000     288 DD+AD WGS84 FIT  NGA
## 2074 345600.00000000   300.00000000 58766 0.0000000000000
+   31     1  2  3  5  6  7  8  9 10 11 12 13 14 15 16 17 18
+         19 20 21 22 23 24 25 26 27 28 29 30 31 32  0  0  0
+          0  0  0  0  0  0  0  0  0  0  0  0  0  0  0  0  0
+          0  0  0  0  0  0  0  0  0  0  0  0  0  0  0  0  0
+          0  0  0  0  0  0  0  0  0  0  0  0  0  0  0  0  0
++         2  2  2  2  2  2  2  2  2  2  2  2  2  2  2  2  2
++         2  2  2  2  2  2  2  2  2  2  2  2  2  2  0  0  0
++         0  0  0  0  0  0  0  0  0  0  0  0  0  0  0  0  0
++         0  0  0  0  0  0  0  0  0  0  0  0  0  0  0  0  0
++         0  0  0  0  0  0  0  0  0  0  0  0  0  0  0  0  0
%c cc cc ccc ccc cccc cccc cccc cccc ccccc ccccc ccccc ccccc
%c cc cc ccc ccc cccc cccc cccc cccc ccccc ccccc ccccc ccccc
%f  0.0000000  0.000000000  0.00000000000  0.000000000000000
%f  0.0000000  0.000000000  0.00000000000  0.000000000000000
%i    0    0    0    0      0      0      0      0         0
%i    0    0    0    0      0      0      0      0         0
/*      NGA, ST. LOUIS,MO.                                  
/*   EPHEMERIS COMPUTED FROM 2 DAYS OF DATA                 
/*   EPOCHA v5 SMOOTHER                                     
/*   G1762 IERS2010 SATAF SATAPC                            
*  2019 10 10 20 40  0.00000000
P  1 -13454.543320  15436.445397  16534.195792   -158.055574                    
V  1   1267.681914 -21505.128007  21159.764209     -0.133182                    
P  2  14082.830945   7489.242738 -20640.779114   -323.166602                    
V  2  -2672.308332  27521.531262   7804.125443     -0.079638                    
P  3 -21924.073796  13596.960110  -6177.701356    -20.789084                    
V  3  -8223.426090    460.413021  30568.919883     -0.047534                    
P  5  23641.463407   -763.087720 -12418.092413     -2.200514                    
V  5 -13200.130206   8466.970844 -25743.599234     -0.003947                    
P  6   7023.976324  21118.510063 -14433.865288    -86.019481                    
V  6  -4184.269545  17984.456346  24230.383261     -0.129306                    
P  7  -5924.461954  25414.449816  -2988.181855   -124.362608                    
V  7  -2774.110822  -4651.898099 -31622.481223     -0.080698                    
P  8 -20424.309050   -689.455412  17111.662158     -9.469951                    
V  8 -16374.900849 -14095.293951 -19945.356604     -0.013266                    
P  9  -2910.970260  16302.015430 -20811.601509    -53.275345                    
V  9 -21588.368929 -15125.353643  -8855.858077     -0.100493                    
P 10  -3890.578630 -14765.022071  21782.295170    -88.782650                    
V 10  25554.847738 -10207.335424  -2574.971936     -0.154813                    
P 11 -11889.172786  12639.028695  19660.238664   -482.009625                    
V 11  -9472.825029 -24503.419260   9466.476337      0.112597                    
P 12  24514.853037  -9758.837562  -2322.110274    195.378597                    
V 12   3279.344671   1329.693234  32125.356795     -0.038914                    
P 13  21594.327796  10632.848390  11187.541052    -39.591634                    
V 13   8620.116717  11677.359349 -27384.395256      0.021456                    
P 14 -18795.470473 -18846.105792   1873.636045    -56.820805                    
V 14   3233.401991   -622.965444  31521.992070      0.020364                    
P 15  20448.846419  -1966.034601  16749.739609   -280.829425                    
V 15  17279.631307  13426.904834 -18802.949807      0.026992                    
P 16 -22783.487070  -2692.333430 -13942.727563    -82.068624                    
V 16  16008.685167  -6368.498471 -24850.749406     -0.035918                    
P 17  12687.360026  20770.538258  11145.548053    141.777588                    
V 17 -11236.805997  -7584.752584  27900.352953      0.070785                    
P 18 -14950.651245   7038.408013  20268.371844     92.095496                    
V 18   1142.507878 -26924.534436  10043.459073      0.027361                    
P 19  17285.035258  19758.569298   3641.561140   -255.523456                    
V 19  -5099.020439  -1873.816955  31805.285496      0.052286                    
P 20   6050.358669 -18601.442622  17780.416980    527.160166                    
V 20  21056.021242  -9393.712849 -17076.513910      0.001098                    
P 21    910.583630 -26639.719745   1434.387869   -104.529285                    
V 21   3030.216872   -657.241106 -31329.113731      0.062098                    
P 22 -24273.820228  10493.345768   2049.213095   -762.785677                    
V 22    360.733554  -4546.790695  30932.639749     -0.032837                    
P 23 -13967.764521   8333.278607 -20716.407028   -162.167005                    
V 23 -21384.637017 -16643.891743   7214.057166      0.021427                    
P 24  14126.637562 -13402.707699  17740.845290     -3.275858                    
V 24    363.259340  23166.156354  17397.962164     -0.005961                    
P 25  14904.724150 -16688.645240 -14320.693850    -15.015776                    
V 25  17371.038626  -4825.756193  24309.303555     -0.010201                    
P 26 -15619.283317  -8563.388538 -19774.251762     58.561192                    
V 26  22429.265023 -11234.520781 -12671.339459      0.086148                    
P 27 -22955.731521 -11469.545297   7326.359973    -83.350702                    
V 27  -6258.758614  -7214.755604 -30138.398833     -0.122651                    
P 28   3092.529926  14795.104440  22453.695949    759.488930                    
V 28 -25813.891003   7857.520712  -1561.721015     -0.012735                    
P 29   5552.485063 -14286.478576 -21720.801250     74.794166                    
V 29  20808.402917  17880.864278  -6475.127212     -0.102108                    
P 30   1315.450020  25272.378090   7761.985877    -58.812156                    
V 30  -5059.238033   9157.718131 -29274.990884     -0.081509                    
P 31  -8200.149540 -19335.992442 -15992.097517      4.550503                    
V 31   5507.734516 -19844.335959  21629.453594     -0.025573                    
P 32 -13931.843901 -20053.616321  10665.503680     86.918785                    
V 32  12155.011139   6182.646662  27536.398935      0.130254                    
EOF
